NORAD_CAT_ID,OBJECT_NAME,OBJECT_TYPE,EPOCH,MEAN_MOTION,ECCENTRICITY,INCLINATION,RA_OF_ASC_NODE,ARG_OF_PERICENTER,MEAN_ANOMALY,BSTAR,MEAN_MOTION_DOT,MEAN_MOTION_DDOT,TLE_LINE0,TLE_LINE1,TLE_LINE2,SEMIMAJOR_AXIS,PERIOD,APOGEE,PERIGEE,DECAYED
53427.0,STARLINK-4541,PAYLOAD,2024-03-11 21:10:15,15.08843799,0.0001277,53.2144,141.3751,68.5801,291.5327,0.00022756,3.336e-05,0.0,0 STARLINK-4541,1 53427U 22097AR  24071.88212059  .00003336  00000-0  22756-3 0  9990,2 53427  53.2144 141.3751 0001277  68.5801 291.5327 15.08843799 88299,6917.869,95.437,540.617,538.85,0.0
53427.0,STARLINK-4541,PAYLOAD,2024-03-12 21:01:02,15.08841722,0.0001303,53.2147,136.9165,76.897,283.2167,7.3209e-05,8.77e-06,0.0,0 STARLINK-4541,1 53427U 22097AR  24072.87572038  .00000877  00000-0  73209-4 0  9993,2 53427  53.2147 136.9165 0001303  76.8970 283.2167 15.08841722 88924,6917.875,95.437,540.642,538.839,0.0
53427.0,STARLINK-4541,PAYLOAD,2024-03-13 11:19:30,15.08842401,0.000129,53.2149,134.2407,81.8566,278.2573,3.0611e-05,1.99e-06,0.0,0 STARLINK-4541,1 53427U 22097AR  24073.47188064  .00000199  00000-0  30611-4 0  9999,2 53427  53.2149 134.2407 0001290  81.8566 278.2573 15.08842401 89019,6917.873,95.437,540.63,538.846,0.0
53427.0,STARLINK-4541,PAYLOAD,2024-03-13 20:51:49,15.08842809,0.0001315,53.2148,132.4565,86.2021,273.9121,0.00020401,2.961e-05,0.0,0 STARLINK-4541,1 53427U 22097AR  24073.86932134  .00002961  00000-0  20401-3 0  9991,2 53427  53.2148 132.4565 0001315  86.2021 273.9121 15.08842809 89075,6917.872,95.437,540.647,538.827,0.0
53427.0,STARLINK-4541,PAYLOAD,2024-03-14 12:45:40,15.08854146,0.0001572,53.2158,129.4842,96.0132,264.1039,0.00011969,1.618e-05,0.0,0 STARLINK-4541,1 53427U 22097AR  24074.53171439  .00001618  00000-0  11969-3 0  9996,2 53427  53.2158 129.4842 0001572  96.0132 264.1039 15.08854146 88691,6917.837,95.437,540.79,538.615,0.0
53427.0,STARLINK-4541,PAYLOAD,2024-03-15 12:36:27,15.08839966,0.000148,53.2156,125.0169,88.6788,271.4374,0.00010096,1.319e-05,0.0,0 STARLINK-4541,1 53427U 22097AR  24075.52532300  .00001319  00000-0  10096-3 0  9992,2 53427  53.2156 125.0169 0001480  88.6788 271.4374 15.08839966 88848,6917.88,95.438,540.769,538.722,0.0
53427.0,STARLINK-4541,PAYLOAD,2024-03-16 09:16:28,15.08842598,0.0001609,53.2155,121.152,80.8231,279.2943,0.00015167,2.127e-05,0.0,0 STARLINK-4541,1 53427U 22097AR  24076.38644484  .00002127  00000-0  15167-3 0  9996,2 53427  53.2155 121.1520 0001609  80.8231 279.2943 15.08842598 89456,6917.872,95.437,540.851,538.624,0.0
53427.0,STARLINK-4541,PAYLOAD,2024-03-17 12:18:02,15.08842982,0.0001481,53.2161,116.0966,100.8103,259.3056,0.00023639,3.476e-05,0.0,0 STARLINK-4541,1 53427U 22097AR  24077.51252398  .00003476  00000-0  23639-3 0  9992,2 53427  53.2161 116.0966 0001481 100.8103 259.3056 15.08842982 89146,6917.871,95.437,540.761,538.712,0.0
53427.0,STARLINK-4541,PAYLOAD,2024-03-18 12:08:49,15.08836806,0.0001661,53.217,111.6349,95.5851,264.5331,2.5192e-05,1.13e-06,0.0,0 STARLINK-4541,1 53427U 22097AR  24078.50612999  .00000113  00000-0  25192-4 0  9991,2 53427  53.2170 111.6349 0001661  95.5851 264.5331 15.08836806 89290,6917.89,95.438,540.904,538.606,0.0
53427.0,STARLINK-4541,PAYLOAD,2024-03-19 08:48:49,15.08847311,0.0001682,53.2167,107.7693,99.662,260.4563,0.00014299,1.989e-05,0.0,0 STARLINK-4541,1 53427U 22097AR  24079.36724139  .00001989  00000-0  14299-3 0  9993,2 53427  53.2167 107.7693 0001682  99.6620 260.4563 15.08847311 89426,6917.858,95.437,540.887,538.559,0.0
53427.0,STARLINK-4541,PAYLOAD,2024-03-20 02:18:04,15.08840107,0.0001684,53.2167,104.5001,94.8678,265.2506,0.00013125,1.801e-05,0.0,0 STARLINK-4541,1 53427U 22097AR  24080.09588707  .00001801  00000-0  13125-3 0  9994,2 53427  53.2167 104.5001 0001684  94.8678 265.2506 15.08840107 89534,6917.88,95.438,540.91,538.58,0.0
53427.0,STARLINK-4541,PAYLOAD,2024-03-20 07:04:13,15.0884145,0.0001707,53.216,103.6082,96.7683,263.3504,0.00010882,1.444e-05,0.0,0 STARLINK-4541,1 53427U 22097AR  24080.29460580  .00001444  00000-0  10882-3 0  9994,2 53427  53.2160 103.6082 0001707  96.7683 263.3504 15.08841450 90046,6917.876,95.437,540.922,538.56,0.0
53427.0,STARLINK-4541,PAYLOAD,2024-03-21 05:19:38,15.08836866,0.0001777,53.2163,99.4479,102.4871,257.632,-5.5895e-05,-1.178e-05,0.0,0 STARLINK-4541,1 53427U 22097AR  24081.22196895 -.00001178  00000-0 -55895-4 0  9993,2 53427  53.2163  99.4479 0001777 102.4871 257.6320 15.08836866 89700,6917.89,95.438,540.984,538.526,0.0
53427.0,STARLINK-4541,PAYLOAD,2024-03-21 08:30:24,15.08841184,0.000164,53.2164,98.8522,91.7965,268.3215,1.3614e-05,-7.1e-07,0.0,0 STARLINK-4541,1 53427U 22097AR  24081.35445072 -.00000071  00000-0  13614-4 0  9994,2 53427  53.2164  98.8522 0001640  91.7965 268.3215 15.08841184 90204,6917.877,95.437,540.876,538.607,0.0
53427.0,STARLINK-4541,PAYLOAD,2024-03-21 18:02:43,15.08842146,0.0001623,53.2165,97.0675,87.6432,272.4746,5.6224e-05,6.07e-06,0.0,0 STARLINK-4541,1 53427U 22097AR  24081.75188943  .00000607  00000-0  56224-4 0  9997,2 53427  53.2165  97.0675 0001623  87.6432 272.4746 15.08842146 90269,6917.874,95.437,540.862,538.616,0.0
53427.0,STARLINK-4541,PAYLOAD,2024-03-22 09:56:34,15.08845477,0.000166,53.216,94.0949,94.6186,265.4996,0.00013124,1.802e-05,0.0,0 STARLINK-4541,1 53427U 22097AR  24082.41428585  .00001802  00000-0  13124-3 0  9999,2 53427  53.2160  94.0949 0001660  94.6186 265.4996 15.08845477 89885,6917.864,95.437,540.877,538.58,0.0
53427.0,STARLINK-4541,PAYLOAD,2024-03-23 05:01:12,15.08834174,0.0002108,53.2146,90.526,84.1447,275.9785,3.1783e-05,2.18e-06,0.0,0 STARLINK-4541,1 53427U 22097AR  24083.20917654  .00000218  00000-0  31783-4 0  9999,2 53427  53.2146  90.5260 0002108  84.1447 275.9785 15.08834174 90008,6917.898,95.438,541.221,538.305,0.0
53427.0,STARLINK-4541,PAYLOAD,2024-03-23 17:44:17,15.08844819,0.0001691,53.2167,88.1481,86.6544,273.4641,0.00011954,1.615e-05,0.0,0 STARLINK-4541,1 53427U 22097AR  24083.73909165  .00001615  00000-0  11954-3 0  9994,2 53427  53.2167  88.1481 0001691  86.6544 273.4641 15.08844819 90089,6917.866,95.437,540.9,538.561,0.0
53427.0,STARLINK-4541,PAYLOAD,2024-03-24 06:27:22,15.08853387,0.000153,53.2145,85.768,89.9454,270.1713,0.00038008,5.768e-05,0.0,0 STARLINK-4541,1 53427U 22097AR  24084.26900799  .00005768  00000-0  38008-3 0  9999,2 53427  53.2145  85.7680 0001530  89.9454 270.1713 15.08853387 90643,6917.839,95.437,540.763,538.646,0.0
53427.0,STARLINK-4541,PAYLOAD,2024-03-24 17:35:04,15.0884009,0.0001825,53.2163,83.683,98.8896,261.2303,0.00014045,1.948e-05,0.0,0 STARLINK-4541,1 53427U 22097AR  24084.73269354  .00001948  00000-0  14045-3 0  9997,2 53427  53.2163  83.6830 0001825  98.8896 261.2303 15.08840090 90231,6917.88,95.438,541.008,538.483,0.0
53427.0,STARLINK-4541,PAYLOAD,2024-03-25 06:18:10,15.08838483,0.0001483,53.2158,81.3058,97.8597,262.2563,0.00011821,1.594e-05,0.0,0 STARLINK-4541,1 53427U 22097AR  24085.26261613  .00001594  00000-0  11821-3 0  9992,2 53427  53.2158  81.3058 0001483  97.8597 262.2563 15.08838483 90792,6917.885,95.438,540.776,538.724,0.0
53427.0,STARLINK-4541,PAYLOAD,2024-03-26 06:08:55,15.08894868,0.0001286,53.2163,76.8458,96.3016,263.8123,0.0019461,0.00030867,0.0,0 STARLINK-4541,1 53427U 22097AR  24086.25620040  .00030867  00000-0  19461-2 0  9997,2 53427  53.2163  76.8458 0001286  96.3016 263.8123 15.08894868 90464,6917.713,95.434,540.467,538.688,0.0
53427.0,STARLINK-4541,PAYLOAD,2024-03-27 05:59:43,15.08840129,0.0001391,53.2161,72.3809,74.4666,285.648,0.0015593,0.00024615,0.0,0 STARLINK-4541,1 53427U 22097AR  24087.24981379  .00024615  00000-0  15593-2 0  9998,2 53427  53.2161  72.3809 0001391  74.4666 285.6480 15.08840129 90614,6917.88,95.438,540.707,538.783,0.0
53427.0,STARLINK-4541,PAYLOAD,2024-03-27 09:10:30,15.08842165,0.0001413,53.2165,71.7909,95.3315,264.7839,0.0014623,0.00023062,0.0,0 STARLINK-4541,1 53427U 22097AR  24087.38229403  .00023062  00000-0  14623-2 0  9994,2 53427  53.2165  71.7909 0001413  95.3315 264.7839 15.08842165 91114,6917.874,95.437,540.716,538.761,0.0
53427.0,STARLINK-4541,PAYLOAD,2024-03-27 21:53:35,15.08823711,0.0001447,53.2167,69.4112,96.2654,263.8503,0.00091113,0.00014236,0.0,0 STARLINK-4541,1 53427U 22097AR  24087.91221891  .00014236  00000-0  91113-3 0  9999,2 53427  53.2167  69.4112 0001447  96.2654 263.8503 15.08823711 90718,6917.93,95.439,540.796,538.794,0.0
53427.0,STARLINK-4541,PAYLOAD,2024-03-28 07:25:54,15.08837136,0.0001332,53.2171,67.6283,96.1675,263.9469,0.00084263,0.00013147,0.0,0 STARLINK-4541,1 53427U 22097AR  24088.30965844  .00013147  00000-0  84263-3 0  9994,2 53427  53.2171  67.6283 0001332  96.1675 263.9469 15.08837136 91255,6917.889,95.438,540.676,538.833,0.0
53427.0,STARLINK-4541,PAYLOAD,2024-03-29 04:05:55,15.08839637,0.0001374,53.2172,63.7627,93.7744,266.3405,0.00024116,3.552e-05,0.0,0 STARLINK-4541,1 53427U 22097AR  24089.17078074  .00003552  00000-0  24116-3 0  9990,2 53427  53.2172  63.7627 0001374  93.7744 266.3405 15.08839637 90907,6917.881,95.438,540.697,538.796,0.0
53427.0,STARLINK-4541,PAYLOAD,2024-03-29 08:52:04,15.08845847,0.0001319,53.2165,62.8697,91.8862,268.2281,0.00032969,4.964e-05,0.0,0 STARLINK-4541,1 53427U 22097AR  24089.36949879  .00004964  00000-0  32969-3 0  9994,2 53427  53.2165  62.8697 0001319  91.8862 268.2281 15.08845847 91415,6917.863,95.437,540.64,538.815,0.0
53427.0,STARLINK-4541,PAYLOAD,2024-03-30 05:32:05,15.08847306,0.0001465,53.2166,59.0013,80.6977,279.4181,0.00026919,4e-05,0.0,0 STARLINK-4541,1 53427U 22097AR  24090.23061960  .00004000  00000-0  26919-3 0  9997,2 53427  53.2166  59.0013 0001465  80.6977 279.4181 15.08847306 91067,6917.858,95.437,540.737,538.71,0.0
53427.0,STARLINK-4541,PAYLOAD,2024-03-30 07:07:28,15.08851158,0.0001559,53.2177,58.7022,82.1921,277.9248,0.00038827,5.899e-05,0.0,0 STARLINK-4541,1 53427U 22097AR  24090.29685870  .00005899  00000-0  38827-3 0  9993,2 53427  53.2177  58.7022 0001559  82.1921 277.9248 15.08851158 91556,6917.846,95.437,540.79,538.633,0.0
